[{"OBJECT_NAME":"STARLINK-36730","OBJECT_ID":"2026-034AA","EPOCH":"2026-03-12T22:30:27.572832","MEAN_MOTION":15.8090023,"ECCENTRICITY":0.00017605,"INCLINATION":53.1587,"RA_OF_ASC_NODE":194.8651,"ARG_OF_PERICENTER":52.3465,"MEAN_ANOMALY":307.7717,"EPHEMERIS_TYPE":0,"CLASSIFICATION_TYPE":"U","NORAD_CAT_ID":67874,"ELEMENT_SET_NO":999,"REV_AT_EPOCH":445,"BSTAR":0.00044678513,"MEAN_MOTION_DOT":0.00088504,"MEAN_MOTION_DDOT":0},{"OBJECT_NAME":"STARLINK-36727","OBJECT_ID":"2026-034AB","EPOCH":"2026-03-12T22:29:21.755904","MEAN_MOTION":15.80994286,"ECCENTRICITY":3.706e-5,"INCLINATION":53.1583,"RA_OF_ASC_NODE":194.859,"ARG_OF_PERICENTER":170.5915,"MEAN_ANOMALY":189.5114,"EPHEMERIS_TYPE":0,"CLASSIFICATION_TYPE":"U","NORAD_CAT_ID":67875,"ELEMENT_SET_NO":999,"REV_AT_EPOCH":445,"BSTAR":0.0012124491,"MEAN_MOTION_DOT":0.00246954,"MEAN_MOTION_DDOT":0},{"OBJECT_NAME":"STARLINK-36743","OBJECT_ID":"2026-034AC","EPOCH":"2026-03-12T22:28:17.624640","MEAN_MOTION":15.8093892,"ECCENTRICITY":0.00011258,"INCLINATION":53.1591,"RA_OF_ASC_NODE":194.8538,"ARG_OF_PERICENTER":59.6665,"MEAN_ANOMALY":300.4469,"EPHEMERIS_TYPE":0,"CLASSIFICATION_TYPE":"U","NORAD_CAT_ID":67876,"ELEMENT_SET_NO":999,"REV_AT_EPOCH":445,"BSTAR":0.00073287934,"MEAN_MOTION_DOT":0.00146879,"MEAN_MOTION_DDOT":0},{"OBJECT_NAME":"STARLINK-36784","OBJECT_ID":"2026-034AD","EPOCH":"2026-03-12T22:27:12.619872","MEAN_MOTION":15.80990632,"ECCENTRICITY":8.236e-5,"INCLINATION":53.1587,"RA_OF_ASC_NODE":194.8493,"ARG_OF_PERICENTER":130.2882,"MEAN_ANOMALY":229.8213,"EPHEMERIS_TYPE":0,"CLASSIFICATION_TYPE":"U","NORAD_CAT_ID":67877,"ELEMENT_SET_NO":999,"REV_AT_EPOCH":445,"BSTAR":0.0013443946,"MEAN_MOTION_DOT":0.00274746,"MEAN_MOTION_DDOT":0},{"OBJECT_NAME":"STARLINK-36689","OBJECT_ID":"2026-034AE","EPOCH":"2026-03-12T22:26:07.802592","MEAN_MOTION":15.80996121,"ECCENTRICITY":8.249e-5,"INCLINATION":53.1583,"RA_OF_ASC_NODE":194.8437,"ARG_OF_PERICENTER":110.0617,"MEAN_ANOMALY":250.0495,"EPHEMERIS_TYPE":0,"CLASSIFICATION_TYPE":"U","NORAD_CAT_ID":67878,"ELEMENT_SET_NO":999,"REV_AT_EPOCH":445,"BSTAR":0.0013581708,"MEAN_MOTION_DOT":0.00277736,"MEAN_MOTION_DDOT":0},{"OBJECT_NAME":"STARLINK-36818","OBJECT_ID":"2026-035A","EPOCH":"2026-03-12T22:00:01.999584","MEAN_MOTION":15.80882966,"ECCENTRICITY":0.00014943,"INCLINATION":97.2786,"RA_OF_ASC_NODE":4.4387,"ARG_OF_PERICENTER":96.27,"MEAN_ANOMALY":113.3848,"EPHEMERIS_TYPE":0,"CLASSIFICATION_TYPE":"U","NORAD_CAT_ID":67879,"ELEMENT_SET_NO":999,"REV_AT_EPOCH":427,"BSTAR":-0.00058278577,"MEAN_MOTION_DOT":-0.00110711,"MEAN_MOTION_DDOT":0},{"OBJECT_NAME":"STARLINK-36821","OBJECT_ID":"2026-035B","EPOCH":"2026-03-12T22:00:01.999584","MEAN_MOTION":15.80827808,"ECCENTRICITY":0.00014025,"INCLINATION":97.2779,"RA_OF_ASC_NODE":4.4425,"ARG_OF_PERICENTER":81.6063,"MEAN_ANOMALY":136.6058,"EPHEMERIS_TYPE":0,"CLASSIFICATION_TYPE":"U","NORAD_CAT_ID":67880,"ELEMENT_SET_NO":999,"REV_AT_EPOCH":427,"BSTAR":0.0001102108,"MEAN_MOTION_DOT":0.00021031,"MEAN_MOTION_DDOT":0},{"OBJECT_NAME":"STARLINK-36808","OBJECT_ID":"2026-035C","EPOCH":"2026-03-12T22:00:01.999584","MEAN_MOTION":15.80869756,"ECCENTRICITY":8.984e-5,"INCLINATION":97.279,"RA_OF_ASC_NODE":4.4407,"ARG_OF_PERICENTER":86.7781,"MEAN_ANOMALY":127.1483,"EPHEMERIS_TYPE":0,"CLASSIFICATION_TYPE":"U","NORAD_CAT_ID":67881,"ELEMENT_SET_NO":999,"REV_AT_EPOCH":427,"BSTAR":-0.00024391902,"MEAN_MOTION_DOT":-0.00046727,"MEAN_MOTION_DDOT":0},{"OBJECT_NAME":"STARLINK-36817","OBJECT_ID":"2026-035D","EPOCH":"2026-03-12T22:00:01.999584","MEAN_MOTION":15.80881979,"ECCENTRICITY":0.00012741,"INCLINATION":97.2803,"RA_OF_ASC_NODE":4.4446,"ARG_OF_PERICENTER":76.1845,"MEAN_ANOMALY":150.5477,"EPHEMERIS_TYPE":0,"CLASSIFICATION_TYPE":"U","NORAD_CAT_ID":67882,"ELEMENT_SET_NO":999,"REV_AT_EPOCH":427,"BSTAR":-0.00027812621,"MEAN_MOTION_DOT":-0.00053252,"MEAN_MOTION_DDOT":0},{"OBJECT_NAME":"STARLINK-36856","OBJECT_ID":"2026-035E","EPOCH":"2026-03-12T22:00:01.999584","MEAN_MOTION":15.80841222,"ECCENTRICITY":9.491e-5,"INCLINATION":97.2783,"RA_OF_ASC_NODE":4.4433,"ARG_OF_PERICENTER":70.5081,"MEAN_ANOMALY":151.9709,"EPHEMERIS_TYPE":0,"CLASSIFICATION_TYPE":"U","NORAD_CAT_ID":67883,"ELEMENT_SET_NO":999,"REV_AT_EPOCH":427,"BSTAR":-2.38134e-7,"MEAN_MOTION_DOT":-1.87e-6,"MEAN_MOTION_DDOT":0},{"OBJECT_NAME":"STARLINK-36842","OBJECT_ID":"2026-035F","EPOCH":"2026-03-12T22:00:01.999584","MEAN_MOTION":15.80894167,"ECCENTRICITY":0.00012225,"INCLINATION":97.2793,"RA_OF_ASC_NODE":4.4467,"ARG_OF_PERICENTER":100.6896,"MEAN_ANOMALY":130.3195,"EPHEMERIS_TYPE":0,"CLASSIFICATION_TYPE":"U","NORAD_CAT_ID":67884,"ELEMENT_SET_NO":999,"REV_AT_EPOCH":427,"BSTAR":-0.00045558956,"MEAN_MOTION_DOT":-0.00086855,"MEAN_MOTION_DDOT":0},{"OBJECT_NAME":"STARLINK-36826","OBJECT_ID":"2026-035G","EPOCH":"2026-03-12T22:00:01.999584","MEAN_MOTION":15.80890891,"ECCENTRICITY":0.00011122,"INCLINATION":97.2793,"RA_OF_ASC_NODE":4.4482,"ARG_OF_PERICENTER":100.6205,"MEAN_ANOMALY":134.6655,"EPHEMERIS_TYPE":0,"CLASSIFICATION_TYPE":"U","NORAD_CAT_ID":67885,"ELEMENT_SET_NO":999,"REV_AT_EPOCH":427,"BSTAR":-0.00045940594,"MEAN_MOTION_DOT":-0.0008756,"MEAN_MOTION_DDOT":0},{"OBJECT_NAME":"STARLINK-36390","OBJECT_ID":"2026-035H","EPOCH":"2026-03-12T22:00:01.999584","MEAN_MOTION":15.80874176,"ECCENTRICITY":0.00013314,"INCLINATION":97.2795,"RA_OF_ASC_NODE":4.4493,"ARG_OF_PERICENTER":78.5631,"MEAN_ANOMALY":161.0099,"EPHEMERIS_TYPE":0,"CLASSIFICATION_TYPE":"U","NORAD_CAT_ID":67886,"ELEMENT_SET_NO":999,"REV_AT_EPOCH":432,"BSTAR":-0.0003212162,"MEAN_MOTION_DOT":-0.00061402,"MEAN_MOTION_DDOT":0},{"OBJECT_NAME":"STARLINK-36368","OBJECT_ID":"2026-035J","EPOCH":"2026-03-12T22:00:01.999584","MEAN_MOTION":15.8083878,"ECCENTRICITY":9.28e-5,"INCLINATION":97.2797,"RA_OF_ASC_NODE":4.451,"ARG_OF_PERICENTER":87.2743,"MEAN_ANOMALY":156.5805,"EPHEMERIS_TYPE":0,"CLASSIFICATION_TYPE":"U","NORAD_CAT_ID":67887,"ELEMENT_SET_NO":999,"REV_AT_EPOCH":427,"BSTAR":-4.6044058e-5,"MEAN_MOTION_DOT":-8.961e-5,"MEAN_MOTION_DDOT":0},{"OBJECT_NAME":"STARLINK-36801","OBJECT_ID":"2026-035K","EPOCH":"2026-03-12T22:00:01.999584","MEAN_MOTION":15.80831868,"ECCENTRICITY":9.358e-5,"INCLINATION":97.2782,"RA_OF_ASC_NODE":4.4528,"ARG_OF_PERICENTER":88.4171,"MEAN_ANOMALY":159.7041,"EPHEMERIS_TYPE":0,"CLASSIFICATION_TYPE":"U","NORAD_CAT_ID":67888,"ELEMENT_SET_NO":999,"REV_AT_EPOCH":427,"BSTAR":7.7242858e-5,"MEAN_MOTION_DOT":0.00014689,"MEAN_MOTION_DDOT":0},{"OBJECT_NAME":"STARLINK-36372","OBJECT_ID":"2026-035L","EPOCH":"2026-03-12T22:00:01.999584","MEAN_MOTION":15.80802999,"ECCENTRICITY":0.00013297,"INCLINATION":97.2776,"RA_OF_ASC_NODE":4.4551,"ARG_OF_PERICENTER":94.4495,"MEAN_ANOMALY":162.2374,"EPHEMERIS_TYPE":0,"CLASSIFICATION_TYPE":"U","NORAD_CAT_ID":67889,"ELEMENT_SET_NO":999,"REV_AT_EPOCH":427,"BSTAR":0.00023453835,"MEAN_MOTION_DOT":0.00044989,"MEAN_MOTION_DDOT":0}]
