STARLINK-36730          
1 67874U 26034AA  26071.93781913  .00088504  00000+0  44679-3 0  9991
2 67874  53.1587 194.8651 0001760  52.3465 307.7717 15.80900230  4459
STARLINK-36727          
1 67875U 26034AB  26071.93705736  .00246954  00000+0  12124-2 0  9995
2 67875  53.1583 194.8590 0000370 170.5915 189.5114 15.80994286  4458
STARLINK-36743          
1 67876U 26034AC  26071.93631510  .00146879  00000+0  73288-3 0  9998
2 67876  53.1591 194.8538 0001125  59.6665 300.4469 15.80938920  4458
STARLINK-36784          
1 67877U 26034AD  26071.93556273  .00274746  00000+0  13444-2 0  9993
2 67877  53.1587 194.8493 0000823 130.2882 229.8213 15.80990632  4454
STARLINK-36689          
1 67878U 26034AE  26071.93481253  .00277736  00000+0  13582-2 0  9994
2 67878  53.1583 194.8437 0000824 110.0617 250.0495 15.80996121  4459
STARLINK-36818          
1 67879U 26035A   26071.91668981 -.00110711  00000+0 -58279-3 0  9993
2 67879  97.2786   4.4387 0001494  96.2700 113.3848 15.80882966  4270
STARLINK-36821          
1 67880U 26035B   26071.91668981  .00021031  00000+0  11021-3 0  9993
2 67880  97.2779   4.4425 0001402  81.6063 136.6058 15.80827808  4271
STARLINK-36808          
1 67881U 26035C   26071.91668981 -.00046727  00000+0 -24392-3 0  9990
2 67881  97.2790   4.4407 0000898  86.7781 127.1483 15.80869756  4271
STARLINK-36817          
1 67882U 26035D   26071.91668981 -.00053252  00000+0 -27813-3 0  9993
2 67882  97.2803   4.4446 0001274  76.1845 150.5477 15.80881979  4277
STARLINK-36856          
1 67883U 26035E   26071.91668981 -.00000187  00000+0 -23813-6 0  9992
2 67883  97.2783   4.4433 0000949  70.5081 151.9709 15.80841222  4279
STARLINK-36842          
1 67884U 26035F   26071.91668981 -.00086855  00000+0 -45559-3 0  9997
2 67884  97.2793   4.4467 0001222 100.6896 130.3195 15.80894167  4278
STARLINK-36826          
1 67885U 26035G   26071.91668981 -.00087560  00000+0 -45941-3 0  9997
2 67885  97.2793   4.4482 0001112 100.6205 134.6655 15.80890891  4276
STARLINK-36390          
1 67886U 26035H   26071.91668981 -.00061402  00000+0 -32122-3 0  9992
2 67886  97.2795   4.4493 0001331  78.5631 161.0099 15.80874176  4320
STARLINK-36368          
1 67887U 26035J   26071.91668981 -.00008961  00000+0 -46044-4 0  9993
2 67887  97.2797   4.4510 0000928  87.2743 156.5805 15.80838780  4274
STARLINK-36801          
1 67888U 26035K   26071.91668981  .00014689  00000+0  77243-4 0  9991
2 67888  97.2782   4.4528 0000935  88.4171 159.7041 15.80831868  4271
STARLINK-36372          
1 67889U 26035L   26071.91668981  .00044989  00000+0  23454-3 0  9992
2 67889  97.2776   4.4551 0001329  94.4495 162.2374 15.80802999  4276
